CCSDS_OMM_VERS = 2.0
CREATION_DATE  = 
ORIGINATOR     = 

OBJECT_NAME    = CYGNUS NG-23
OBJECT_ID      = 2025-208A
CENTER_NAME    = EARTH
REF_FRAME      = TEME
TIME_SYSTEM    = UTC
MEAN_ELEMENT_THEORY = SGP/SGP4

EPOCH          = 2026-01-08T12:00:03.881088
MEAN_MOTION    = 15.49175445
ECCENTRICITY   = .0007637
INCLINATION    = 51.6332
RA_OF_ASC_NODE = 9.9851
ARG_OF_PERICENTER = 355.2000
MEAN_ANOMALY   = 4.8914

EPHEMERIS_TYPE = 0
CLASSIFICATION_TYPE = U
NORAD_CAT_ID   = 65616
ELEMENT_SET_NO = 999
REV_AT_EPOCH   = 22
BSTAR          = .18407097E-3
MEAN_MOTION_DOT = .9772E-4
MEAN_MOTION_DDOT = 0

CCSDS_OMM_VERS = 2.0
CREATION_DATE  = 
ORIGINATOR     = 

OBJECT_NAME    = DRAGONFLY
OBJECT_ID      = 1998-067XH
CENTER_NAME    = EARTH
REF_FRAME      = TEME
TIME_SYSTEM    = UTC
MEAN_ELEMENT_THEORY = SGP/SGP4

EPOCH          = 2026-01-09T04:01:08.163840
MEAN_MOTION    = 15.85337671
ECCENTRICITY   = .0008411
INCLINATION    = 51.6223
RA_OF_ASC_NODE = 354.1315
ARG_OF_PERICENTER = 77.0299
MEAN_ANOMALY   = 283.1643

EPHEMERIS_TYPE = 0
CLASSIFICATION_TYPE = U
NORAD_CAT_ID   = 65729
ELEMENT_SET_NO = 999
REV_AT_EPOCH   = 1749
BSTAR          = .12604E-2
MEAN_MOTION_DOT = .31897E-2
MEAN_MOTION_DDOT = 0

CCSDS_OMM_VERS = 2.0
CREATION_DATE  = 
ORIGINATOR     = 

OBJECT_NAME    = 1998-067XK
OBJECT_ID      = 1998-067XK
CENTER_NAME    = EARTH
REF_FRAME      = TEME
TIME_SYSTEM    = UTC
MEAN_ELEMENT_THEORY = SGP/SGP4

EPOCH          = 2026-01-09T04:34:14.988864
MEAN_MOTION    = 15.72364963
ECCENTRICITY   = .0005025
INCLINATION    = 51.6286
RA_OF_ASC_NODE = 357.3406
ARG_OF_PERICENTER = 50.5024
MEAN_ANOMALY   = 309.6418

EPHEMERIS_TYPE = 0
CLASSIFICATION_TYPE = U
NORAD_CAT_ID   = 65731
ELEMENT_SET_NO = 999
REV_AT_EPOCH   = 1745
BSTAR          = .88365E-3
MEAN_MOTION_DOT = .121076E-2
MEAN_MOTION_DDOT = 0

CCSDS_OMM_VERS = 2.0
CREATION_DATE  = 
ORIGINATOR     = 

OBJECT_NAME    = RSP-03
OBJECT_ID      = 1998-067XL
CENTER_NAME    = EARTH
REF_FRAME      = TEME
TIME_SYSTEM    = UTC
MEAN_ELEMENT_THEORY = SGP/SGP4

EPOCH          = 2026-01-09T04:32:49.841664
MEAN_MOTION    = 15.77904597
ECCENTRICITY   = .0006171
INCLINATION    = 51.6259
RA_OF_ASC_NODE = 355.8082
ARG_OF_PERICENTER = 58.6268
MEAN_ANOMALY   = 301.5335

EPHEMERIS_TYPE = 0
CLASSIFICATION_TYPE = U
NORAD_CAT_ID   = 65732
ELEMENT_SET_NO = 999
REV_AT_EPOCH   = 1748
BSTAR          = .11458E-2
MEAN_MOTION_DOT = .202226E-2
MEAN_MOTION_DDOT = 0

CCSDS_OMM_VERS = 2.0
CREATION_DATE  = 
ORIGINATOR     = 

OBJECT_NAME    = GHS-01
OBJECT_ID      = 1998-067XM
CENTER_NAME    = EARTH
REF_FRAME      = TEME
TIME_SYSTEM    = UTC
MEAN_ELEMENT_THEORY = SGP/SGP4

EPOCH          = 2026-01-07T08:09:50.150592
MEAN_MOTION    = 15.92234495
ECCENTRICITY   = .00091221
INCLINATION    = 51.6249
RA_OF_ASC_NODE = 2.1848
ARG_OF_PERICENTER = 72.4376
MEAN_ANOMALY   = 287.7626

EPHEMERIS_TYPE = 0
CLASSIFICATION_TYPE = U
NORAD_CAT_ID   = 65733
ELEMENT_SET_NO = 999
REV_AT_EPOCH   = 1723
BSTAR          = .1480688E-2
MEAN_MOTION_DOT = .508707E-2
MEAN_MOTION_DDOT = .11218926E-3

CCSDS_OMM_VERS = 2.0
CREATION_DATE  = 
ORIGINATOR     = 

OBJECT_NAME    = YOTSUBA-KULOVER
OBJECT_ID      = 1998-067XN
CENTER_NAME    = EARTH
REF_FRAME      = TEME
TIME_SYSTEM    = UTC
MEAN_ELEMENT_THEORY = SGP/SGP4

EPOCH          = 2026-01-08T05:01:31.220832
MEAN_MOTION    = 15.63786992
ECCENTRICITY   = .00038778
INCLINATION    = 51.6293
RA_OF_ASC_NODE = 6.5476
ARG_OF_PERICENTER = 72.8139
MEAN_ANOMALY   = 287.3280

EPHEMERIS_TYPE = 0
CLASSIFICATION_TYPE = U
NORAD_CAT_ID   = 65941
ELEMENT_SET_NO = 999
REV_AT_EPOCH   = 1399
BSTAR          = .10095789E-2
MEAN_MOTION_DOT = .97036E-3
MEAN_MOTION_DDOT = 0

CCSDS_OMM_VERS = 2.0
CREATION_DATE  = 
ORIGINATOR     = 

OBJECT_NAME    = BOTAN
OBJECT_ID      = 1998-067XP
CENTER_NAME    = EARTH
REF_FRAME      = TEME
TIME_SYSTEM    = UTC
MEAN_ELEMENT_THEORY = SGP/SGP4

EPOCH          = 2026-01-08T06:21:24.315264
MEAN_MOTION    = 15.69891545
ECCENTRICITY   = .00046514
INCLINATION    = 51.6270
RA_OF_ASC_NODE = 4.6605
ARG_OF_PERICENTER = 66.4974
MEAN_ANOMALY   = 293.6511

EPHEMERIS_TYPE = 0
CLASSIFICATION_TYPE = U
NORAD_CAT_ID   = 65942
ELEMENT_SET_NO = 999
REV_AT_EPOCH   = 1402
BSTAR          = .13611441E-2
MEAN_MOTION_DOT = .169323E-2
MEAN_MOTION_DDOT = 0

CCSDS_OMM_VERS = 2.0
CREATION_DATE  = 
ORIGINATOR     = 

OBJECT_NAME    = E-KAGAKU-1
OBJECT_ID      = 1998-067XQ
CENTER_NAME    = EARTH
REF_FRAME      = TEME
TIME_SYSTEM    = UTC
MEAN_ELEMENT_THEORY = SGP/SGP4

EPOCH          = 2026-01-08T00:25:17.312736
MEAN_MOTION    = 15.63751570
ECCENTRICITY   = .00024606
INCLINATION    = 51.6303
RA_OF_ASC_NODE = 7.5238
ARG_OF_PERICENTER = 65.5030
MEAN_ANOMALY   = 294.6221

EPHEMERIS_TYPE = 0
CLASSIFICATION_TYPE = U
NORAD_CAT_ID   = 65943
ELEMENT_SET_NO = 999
REV_AT_EPOCH   = 1396
BSTAR          = .7999789E-3
MEAN_MOTION_DOT = .76461E-3
MEAN_MOTION_DDOT = 0

CCSDS_OMM_VERS = 2.0
CREATION_DATE  = 
ORIGINATOR     = 

OBJECT_NAME    = HRC MONOBLOCK CAMERA
OBJECT_ID      = 1998-067XR
CENTER_NAME    = EARTH
REF_FRAME      = TEME
TIME_SYSTEM    = UTC
MEAN_ELEMENT_THEORY = SGP/SGP4

EPOCH          = 2026-01-09T03:42:13.683456
MEAN_MOTION    = 15.56272283
ECCENTRICITY   = .0001238
INCLINATION    = 51.6311
RA_OF_ASC_NODE = 4.6066
ARG_OF_PERICENTER = 336.8594
MEAN_ANOMALY   = 23.2341

EPHEMERIS_TYPE = 0
CLASSIFICATION_TYPE = U
NORAD_CAT_ID   = 66052
ELEMENT_SET_NO = 999
REV_AT_EPOCH   = 1310
BSTAR          = .46936E-3
MEAN_MOTION_DOT = .33269E-3
MEAN_MOTION_DDOT = 0

CCSDS_OMM_VERS = 2.0
CREATION_DATE  = 
ORIGINATOR     = 

OBJECT_NAME    = HTV-X1
OBJECT_ID      = 2025-241A
CENTER_NAME    = EARTH
REF_FRAME      = TEME
TIME_SYSTEM    = UTC
MEAN_ELEMENT_THEORY = SGP/SGP4

EPOCH          = 2026-01-08T12:00:03.881088
MEAN_MOTION    = 15.49175445
ECCENTRICITY   = .0007637
INCLINATION    = 51.6332
RA_OF_ASC_NODE = 9.9851
ARG_OF_PERICENTER = 355.2000
MEAN_ANOMALY   = 4.8914

EPHEMERIS_TYPE = 0
CLASSIFICATION_TYPE = U
NORAD_CAT_ID   = 66174
ELEMENT_SET_NO = 999
REV_AT_EPOCH   = 51
BSTAR          = .18407097E-3
MEAN_MOTION_DOT = .9772E-4
MEAN_MOTION_DDOT = 0

CCSDS_OMM_VERS = 2.0
CREATION_DATE  = 
ORIGINATOR     = 

OBJECT_NAME    = SZ-21 MODULE
OBJECT_ID      = 2025-246C
CENTER_NAME    = EARTH
REF_FRAME      = TEME
TIME_SYSTEM    = UTC
MEAN_ELEMENT_THEORY = SGP/SGP4

EPOCH          = 2026-01-07T20:39:08.061408
MEAN_MOTION    = 15.64106684
ECCENTRICITY   = .00014946
INCLINATION    = 41.4742
RA_OF_ASC_NODE = 216.5245
ARG_OF_PERICENTER = 84.1343
MEAN_ANOMALY   = 275.9668

EPHEMERIS_TYPE = 0
CLASSIFICATION_TYPE = U
NORAD_CAT_ID   = 66515
ELEMENT_SET_NO = 999
REV_AT_EPOCH   = 853
BSTAR          = .26191796E-3
MEAN_MOTION_DOT = .25291E-3
MEAN_MOTION_DDOT = 0

CCSDS_OMM_VERS = 2.0
CREATION_DATE  = 
ORIGINATOR     = 

OBJECT_NAME    = SHENZHOU-22
OBJECT_ID      = 2025-272A
CENTER_NAME    = EARTH
REF_FRAME      = TEME
TIME_SYSTEM    = UTC
MEAN_ELEMENT_THEORY = SGP/SGP4

EPOCH          = 2026-01-08T14:34:19.031808
MEAN_MOTION    = 15.60317657
ECCENTRICITY   = .00111303
INCLINATION    = 41.4648
RA_OF_ASC_NODE = 213.4557
ARG_OF_PERICENTER = 245.5686
MEAN_ANOMALY   = 114.3992

EPHEMERIS_TYPE = 0
CLASSIFICATION_TYPE = U
NORAD_CAT_ID   = 66645
ELEMENT_SET_NO = 999
REV_AT_EPOCH   = 26749
BSTAR          = .50792436E-3
MEAN_MOTION_DOT = .42775E-3
MEAN_MOTION_DDOT = 0

